[{"OBJECT_NAME":"STARLINK-4165","OBJECT_ID":"2022-086AW","EPOCH":"2026-03-09T15:17:09.082752","MEAN_MOTION":15.08836198,"ECCENTRICITY":0.0001266,"INCLINATION":53.218,"RA_OF_ASC_NODE":184.05,"ARG_OF_PERICENTER":90.7287,"MEAN_ANOMALY":269.385,"EPHEMERIS_TYPE":0,"CLASSIFICATION_TYPE":"U","NORAD_CAT_ID":53286,"ELEMENT_SET_NO":999,"REV_AT_EPOCH":20118,"BSTAR":2.5812e-5,"MEAN_MOTION_DOT":1.23e-6,"MEAN_MOTION_DDOT":0},{"OBJECT_NAME":"THOR ABLESTAR DEB","OBJECT_ID":"1961-015G","EPOCH":"2026-03-09T12:36:21.518784","MEAN_MOTION":14.9924172,"ECCENTRICITY":0.00458994,"INCLINATION":66.74,"RA_OF_ASC_NODE":114.2823,"ARG_OF_PERICENTER":282.1843,"MEAN_ANOMALY":77.4151,"EPHEMERIS_TYPE":0,"CLASSIFICATION_TYPE":"U","NORAD_CAT_ID":122,"ELEMENT_SET_NO":999,"REV_AT_EPOCH":37932,"BSTAR":0.00092278357,"MEAN_MOTION_DOT":0.00011411,"MEAN_MOTION_DDOT":0}]
